0 CZ-3B DEB
1 39335U 10042G   13290.62755057  .00000008  00000-0  10000-3 0    30
2 39335 027.8880 261.1072 7370310 346.8704 001.1381 01.97059499 16666
